1 41861U 16069C   21102.23287994  .00000040  00000-0  00000+0 0  9995
2 41861  54.7033 153.5490 0004796 271.6679  88.3716  1.70473828 27399
1 41861U 16069C   21104.57920743  .00000044  00000-0  00000+0 0  9994
2 41861  54.7040 153.4840 0004864 272.0350  88.0001  1.70473792 27431
1 41861U 16069C   21104.57920743  .00000044  00000-0  00000-0 0  9995
2 41861  54.7040 153.4840 0004864 272.0350  88.0001  1.70473792 27307
1 41861U 16069C   21106.33894627  .00000046  00000-0  00000-0 0  9994
2 41861  54.7044 153.4352 0004909 272.3920  87.6361  1.70473766 27333
1 41861U 16069C   21106.92552678  .00000047  00000-0  00000+0 0  9996
2 41861  54.7045 153.4189 0004930 272.5423  87.4833  1.70473723 27476
1 41861U 16069C   21106.92552678  .00000047  00000-0  00000-0 0  9997
2 41861  54.7045 153.4189 0004930 272.5423  87.4833  1.70473723 27342
1 41861U 16069C   21111.03160341  .00000058  00000-0  00000+0 0  9998
2 41861  54.7062 153.3050 0005007 272.9790  87.0425  1.70473679 27549
1 41861U 16069C   21111.03160341  .00000058  00000-0  00000-0 0  9999
2 41861  54.7062 153.3050 0005007 272.9790  87.0425  1.70473679 27415
1 41861U 16069C   21111.61819035  .00000060  00000-0  00000-0 0  9997
2 41861  54.7065 153.2887 0005036 273.1308  86.8924  1.70473635 27429
1 41861U 16069C   21112.20477503  .00000064  00000-0  00000-0 0  9997
2 41861  54.7062 153.2723 0005056 273.2285  86.7968  1.70473693 27434
1 41861U 16069C   21113.37795232  .00000070  00000-0  00000+0 0  9994
2 41861  54.7064 153.2398 0005063 273.2521  86.7781  1.70473617 27580
1 41861U 16069C   21113.37795232  .00000070  00000-0  00000-0 0  9995
2 41861  54.7064 153.2398 0005063 273.2521  86.7781  1.70473617 27456
1 41861U 16069C   21114.55112568  .00000075  00000-0  00000-0 0  9996
2 41861  54.7066 153.2072 0005101 273.4532  86.5805  1.70473572 27471
1 41861U 16069C   21115.72429363  .00000077  00000-0  00000+0 0  9991
2 41861  54.7069 153.1746 0005109 273.4509  86.5835  1.70473578 27629
1 41861U 16069C   21116.31087456  .00000076  00000-0  00000-0 0  9990
2 41861  54.7071 153.1583 0005115 273.4932  86.5400  1.70473596 27503
1 41861U 16069C   21116.89745715  .00000074  00000-0  00000-0 0  9990
2 41861  54.7072 153.1421 0005124 273.5728  86.4581  1.70473506 27510
1 41861U 16069C   21118.07060992  .00000066  00000-0  00000+0 0  9999
2 41861  54.7075 153.1094 0005140 273.6419  86.3817  1.70473582 27666
1 41861U 16069C   21118.07060992  .00000066  00000-0  00000-0 0  9990
2 41861  54.7075 153.1094 0005140 273.6419  86.3817  1.70473582 27532
